STARLINK-31053          
1 58549U 23192U   26068.37731309 -.00000081  00000+0  93840-5 0  9991
2 58549  53.1606  64.4627 0001465  95.4220 264.6948 15.30191630125939
TRANSPORTER-10 OBJECT AD
1 59125U 24043AD  26068.86032889  .00011954  00000+0  36311-3 0  9997
2 59125  97.5470 207.3753 0008984 221.4908 138.5653 15.34189901112026
